NORAD_CAT_ID,OBJECT_NAME,OBJECT_TYPE,EPOCH,MEAN_MOTION,ECCENTRICITY,INCLINATION,RA_OF_ASC_NODE,ARG_OF_PERICENTER,MEAN_ANOMALY,BSTAR,MEAN_MOTION_DOT,MEAN_MOTION_DDOT,TLE_LINE0,TLE_LINE1,TLE_LINE2,SEMIMAJOR_AXIS,PERIOD,APOGEE,PERIGEE,DECAYED
50834.0,STARLINK-3331,PAYLOAD,2024-07-01 01:45:05,15.08852214,0.0002135,53.2181,67.2194,151.8247,208.2861,0.00013429,1.85e-05,0.0,0 STARLINK-3331,1 50834U 22001AH  24183.07297729  .00001850  00000-0  13429-3 0  9992,2 50834  53.2181  67.2194 0002135 151.8247 208.2861 15.08852214138454,6917.843,95.437,541.185,538.231,0.0
50834.0,STARLINK-3331,PAYLOAD,2024-07-01 09:42:01,15.08858491,0.0001149,53.2169,65.7352,109.4314,250.6802,0.00033949,5.122e-05,0.0,0 STARLINK-3331,1 50834U 22001AH  24183.40417881  .00005122  00000-0  33949-3 0  9997,2 50834  53.2169  65.7352 0001149 109.4314 250.6802 15.08858491137220,6917.824,95.436,540.484,538.894,0.0
50834.0,STARLINK-3331,PAYLOAD,2024-07-01 20:49:44,15.08837545,0.0001232,53.2171,63.6517,120.8095,239.3018,0.00039094,5.939e-05,0.0,0 STARLINK-3331,1 50834U 22001AH  24183.86787209  .00005939  00000-0  39094-3 0  9994,2 50834  53.2171  63.6517 0001232 120.8095 239.3018 15.08837545138578,6917.888,95.438,540.605,538.901,0.0
50834.0,STARLINK-3331,PAYLOAD,2024-07-01 22:25:07,15.088376,0.0001073,53.2171,63.3547,121.6171,238.4926,0.00038911,5.91e-05,0.0,0 STARLINK-3331,1 50834U 22001AH  24183.93411263  .00005910  00000-0  38911-3 0  9992,2 50834  53.2171  63.3547 0001073 121.6171 238.4926 15.08837600137305,6917.888,95.438,540.495,539.01,0.0
50834.0,STARLINK-3331,PAYLOAD,2024-07-02 09:32:48,15.08852141,0.0001305,53.216,61.2727,114.8054,245.3074,0.00030616,4.59e-05,0.0,0 STARLINK-3331,1 50834U 22001AH  24184.39778449  .00004590  00000-0  30616-3 0  9992,2 50834  53.2160  61.2727 0001305 114.8054 245.3074 15.08852141138659,6917.843,95.437,540.611,538.806,0.0
50834.0,STARLINK-3331,PAYLOAD,2024-07-02 22:15:53,15.08846224,0.0001083,53.2178,58.8957,102.6416,257.4697,-6.0699e-05,-1.254e-05,0.0,0 STARLINK-3331,1 50834U 22001AH  24184.92770507 -.00001254  00000-0 -60699-4 0  9999,2 50834  53.2178  58.8957 0001083 102.6416 257.4697 15.08846224137452,6917.861,95.437,540.476,538.977,0.0
50834.0,STARLINK-3331,PAYLOAD,2024-07-03 01:26:39,15.08847588,0.0001193,53.2179,58.3001,110.6917,249.4203,9.8862e-07,-2.72e-06,0.0,0 STARLINK-3331,1 50834U 22001AH  24185.06018320 -.00000272  00000-0  98862-6 0  9996,2 50834  53.2179  58.3001 0001193 110.6917 249.4203 15.08847588138757,6917.857,95.437,540.547,538.897,0.0
50834.0,STARLINK-3331,PAYLOAD,2024-07-03 22:06:40,15.0884164,0.0001081,53.2177,54.4342,90.491,269.6206,0.0001095,1.455e-05,0.0,0 STARLINK-3331,1 50834U 22001AH  24185.92130562  .00001455  00000-0  10950-3 0  9996,2 50834  53.2177  54.4342 0001081  90.4910 269.6206 15.08841640137607,6917.875,95.437,540.488,538.993,0.0
50834.0,STARLINK-3331,PAYLOAD,2024-07-04 01:17:27,15.08831172,0.0001279,53.2178,53.8401,100.9312,259.1824,0.00055901,8.618e-05,0.0,0 STARLINK-3331,1 50834U 22001AH  24186.05379272  .00008618  00000-0  55901-3 0  9997,2 50834  53.2178  53.8401 0001279 100.9312 259.1824 15.08831172138902,6917.907,95.438,540.657,538.888,0.0
50834.0,STARLINK-3331,PAYLOAD,2024-07-04 21:57:27,15.0884192,0.0001121,53.2176,49.9742,84.8905,275.2215,0.00017476,2.495e-05,0.0,0 STARLINK-3331,1 50834U 22001AH  24186.91490726  .00002495  00000-0  17476-3 0  9992,2 50834  53.2176  49.9742 0001121  84.8905 275.2215 15.08841920137755,6917.875,95.437,540.515,538.964,0.0
50834.0,STARLINK-3331,PAYLOAD,2024-07-05 07:29:46,15.08851486,0.0001112,53.218,48.1911,90.0446,270.0674,0.0002405,3.543e-05,0.0,0 STARLINK-3331,1 50834U 22001AH  24187.31234103  .00003543  00000-0  24050-3 0  9993,2 50834  53.2180  48.1911 0001112  90.0446 270.0674 15.08851486139097,6917.845,95.437,540.48,538.941,0.0
50834.0,STARLINK-3331,PAYLOAD,2024-07-05 20:12:52,15.08834681,0.0001432,53.2187,45.8211,116.1671,243.9469,2.7126e-05,1.44e-06,0.0,0 STARLINK-3331,1 50834U 22001AH  24187.84227242  .00000144  00000-0  27126-4 0  9999,2 50834  53.2187  45.8211 0001432 116.1671 243.9469 15.08834681139174,6917.897,95.438,540.752,538.771,0.0
50834.0,STARLINK-3331,PAYLOAD,2024-07-05 21:48:15,15.08834647,9.9e-05,53.2169,45.5151,85.025,275.0855,9.2166e-06,-1.41e-06,0.0,0 STARLINK-3331,1 50834U 22001AH  24187.90851093 -.00000141  00000-0  92166-5 0  9998,2 50834  53.2169  45.5151 0000990  85.0250 275.0855 15.08834647137905,6917.897,95.438,540.447,539.077,0.0
50834.0,STARLINK-3331,PAYLOAD,2024-07-06 07:20:33,15.08849013,0.0001085,53.218,43.7311,82.3758,277.7357,0.00024581,3.627e-05,0.0,0 STARLINK-3331,1 50834U 22001AH  24188.30594457  .00003627  00000-0  24581-3 0  9996,2 50834  53.2180  43.7311 0001085  82.3758 277.7357 15.08849013139243,6917.853,95.437,540.468,538.967,0.0
50834.0,STARLINK-3331,PAYLOAD,2024-07-06 20:03:39,15.08829168,0.0001458,53.2184,41.3562,91.7042,268.4117,-0.00010028,-1.883e-05,0.0,0 STARLINK-3331,1 50834U 22001AH  24188.83587521 -.00001883  00000-0 -10028-3 0  9993,2 50834  53.2184  41.3562 0001458  91.7042 268.4117 15.08829168139322,6917.913,95.438,540.787,538.77,0.0
50834.0,STARLINK-3331,PAYLOAD,2024-07-06 21:39:02,15.08835453,0.0001269,53.2183,41.0559,89.1595,270.9543,-7.2254e-06,-4.03e-06,0.0,0 STARLINK-3331,1 50834U 22001AH  24188.90211298 -.00000403  00000-0 -72254-5 0  9994,2 50834  53.2183  41.0559 0001269  89.1595 270.9543 15.08835453138052,6917.894,95.438,540.637,538.881,0.0
50834.0,STARLINK-3331,PAYLOAD,2024-07-07 00:49:48,15.08837294,0.000128,53.2179,40.4604,86.6901,273.4238,5.3549e-05,5.64e-06,0.0,0 STARLINK-3331,1 50834U 22001AH  24189.03459169  .00000564  00000-0  53549-4 0  9991,2 50834  53.2179  40.4604 0001280  86.6901 273.4238 15.08837294139355,6917.889,95.438,540.639,538.868,0.0
50834.0,STARLINK-3331,PAYLOAD,2024-07-07 07:11:21,15.08841578,0.0001272,53.2178,39.272,92.656,267.4577,0.00015117,2.119e-05,0.0,0 STARLINK-3331,1 50834U 22001AH  24189.29955071  .00002119  00000-0  15117-3 0  9998,2 50834  53.2178  39.2720 0001272  92.6560 267.4577 15.08841578138110,6917.876,95.437,540.621,538.861,0.0
50834.0,STARLINK-3331,PAYLOAD,2024-07-08 13:23:40,15.08837996,0.0001063,53.2165,33.6195,90.2819,269.8295,-3.9078e-06,-3.5e-06,0.0,0 STARLINK-3331,1 50834U 22001AH  24190.55811019 -.00000350  00000-0 -39078-5 0  9993,2 50834  53.2165  33.6195 0001063  90.2819 269.8295 15.08837996139583,6917.887,95.438,540.487,539.016,0.0
50834.0,STARLINK-3331,PAYLOAD,2024-07-08 19:45:13,15.08845853,0.0001077,53.2162,32.4312,82.2209,277.8906,0.00017637,2.521e-05,0.0,0 STARLINK-3331,1 50834U 22001AH  24190.82306814  .00002521  00000-0  17637-3 0  9990,2 50834  53.2162  32.4312 0001077  82.2209 277.8906 15.08845853138349,6917.862,95.437,540.473,538.982,0.0
50834.0,STARLINK-3331,PAYLOAD,2024-07-09 06:52:54,15.08852157,0.0001076,53.2163,30.3494,81.1152,278.9962,0.00036378,5.508e-05,0.0,0 STARLINK-3331,1 50834U 22001AH  24191.28674514  .00005508  00000-0  36378-3 0  9997,2 50834  53.2163  30.3494 0001076  81.1152 278.9962 15.08852157139690,6917.843,95.437,540.453,538.964,0.0
50834.0,STARLINK-3331,PAYLOAD,2024-07-09 19:36:00,15.08833445,0.0001281,53.2173,27.9675,98.6936,261.4201,0.00019933,2.885e-05,0.0,0 STARLINK-3331,1 50834U 22001AH  24191.81667139  .00002885  00000-0  19933-3 0  9994,2 50834  53.2173  27.9675 0001281  98.6936 261.4201 15.08833445139776,6917.9,95.438,540.652,538.879,0.0
50834.0,STARLINK-3331,PAYLOAD,2024-07-10 06:43:42,15.08842245,0.000137,53.2189,25.8878,92.3626,267.7523,0.00039838,6.058e-05,0.0,0 STARLINK-3331,1 50834U 22001AH  24192.28035287  .00006058  00000-0  39838-3 0  9991,2 50834  53.2189  25.8878 0001370  92.3626 267.7523 15.08842245138561,6917.874,95.437,540.686,538.791,0.0
50834.0,STARLINK-3331,PAYLOAD,2024-07-10 22:37:33,15.08846322,0.0001443,53.2191,22.9145,94.9306,265.1851,0.00050818,7.81e-05,0.0,0 STARLINK-3331,1 50834U 22001AH  24192.94275376  .00007810  00000-0  50818-3 0  9997,2 50834  53.2191  22.9145 0001443  94.9306 265.1851 15.08846322139942,6917.861,95.437,540.724,538.728,0.0
50834.0,STARLINK-3331,PAYLOAD,2024-07-11 12:56:02,15.08846697,0.0001446,53.2195,20.2374,97.445,262.6706,0.00029437,4.401e-05,0.0,0 STARLINK-3331,1 50834U 22001AH  24193.53891257  .00004401  00000-0  29437-3 0  9991,2 50834  53.2195  20.2374 0001446  97.4450 262.6706 15.08846697138756,6917.86,95.437,540.725,538.725,0.0
50834.0,STARLINK-3331,PAYLOAD,2024-07-11 19:17:34,15.08844561,0.0001497,53.2202,19.0483,95.9016,264.2147,0.00019964,2.891e-05,0.0,0 STARLINK-3331,1 50834U 22001AH  24193.80387292  .00002891  00000-0  19964-3 0  9995,2 50834  53.2202  19.0483 0001497  95.9016 264.2147 15.08844561140072,6917.866,95.437,540.767,538.696,0.0
50834.0,STARLINK-3331,PAYLOAD,2024-07-12 12:46:48,15.08854294,0.0002235,53.2167,15.7779,79.822,280.3024,0.0003465,5.233e-05,0.0,0 STARLINK-3331,1 50834U 22001AH  24194.53251003  .00005233  00000-0  34650-3 0  9998,2 50834  53.2167  15.7779 0002235  79.8220 280.3024 15.08854294138908,6917.837,95.437,541.248,538.156,0.0
50834.0,STARLINK-3331,PAYLOAD,2024-07-12 19:08:21,15.08844125,0.0001139,53.2177,14.5894,87.0439,273.0684,0.00013013,1.784e-05,0.0,0 STARLINK-3331,1 50834U 22001AH  24194.79747149  .00001784  00000-0  13013-3 0  9994,2 50834  53.2177  14.5894 0001139  87.0439 273.0684 15.08844125138946,6917.868,95.437,540.521,538.945,0.0
50834.0,STARLINK-3331,PAYLOAD,2024-07-13 04:40:39,15.08854134,0.0001113,53.2187,12.8054,91.2047,268.9073,0.00031958,4.804e-05,0.0,0 STARLINK-3331,1 50834U 22001AH  24195.19490629  .00004804  00000-0  31958-3 0  9991,2 50834  53.2187  12.8054 0001113  91.2047 268.9073 15.08854134140286,6917.837,95.437,540.472,538.932,0.0
50834.0,STARLINK-3331,PAYLOAD,2024-07-13 11:02:12,15.08843669,0.0001985,53.2176,11.6156,97.9068,262.2149,0.00011026,1.467e-05,0.0,0 STARLINK-3331,1 50834U 22001AH  24195.45987193  .00001467  00000-0  11026-3 0  9993,2 50834  53.2176  11.6156 0001985  97.9068 262.2149 15.08843669140324,6917.869,95.437,541.107,538.361,0.0
